     3.03           N: GNSS NAV DATA    M: Mixed            RINEX VERSION / TYPE
ES 1.6                                  20230810 201423 UTC PGM / RUN BY / DATE 
log: C:\Users\visse\source\GISMarkers\GIS-TRC\SFE_Facet_LBanCOMMENT             
input_format: u-blox, option: -TADJ=0.1                     COMMENT             
GPSA   1.4901E-08  2.2352E-08 -1.1921E-07 -1.1921E-07       IONOSPHERIC CORR    
GPSB   1.1674E+05  1.4746E+05 -6.5536E+04 -3.2768E+05       IONOSPHERIC CORR    
GAL    0.0000E+00  0.0000E+00  0.0000E+00  0.0000E+00       IONOSPHERIC CORR    
QZSA   0.0000E+00  0.0000E+00  0.0000E+00  0.0000E+00       IONOSPHERIC CORR    
QZSB   0.0000E+00  0.0000E+00  0.0000E+00  0.0000E+00       IONOSPHERIC CORR    
IRNA   0.0000E+00  0.0000E+00  0.0000E+00  0.0000E+00       IONOSPHERIC CORR    
IRNB   0.0000E+00  0.0000E+00  0.0000E+00  0.0000E+00       IONOSPHERIC CORR    
GPUT -4.6566128731E-09-1.332267630E-14-458752 2273          TIME SYSTEM CORR    
GAUT  0.0000000000E+00 0.000000000E+00      0    0          TIME SYSTEM CORR    
QZUT  0.0000000000E+00 0.000000000E+00      0    0          TIME SYSTEM CORR    
BDUT  0.0000000000E+00 0.000000000E+00      0    0          TIME SYSTEM CORR    
IRUT  0.0000000000E+00 0.000000000E+00      0    0          TIME SYSTEM CORR    
    18                                                      LEAP SECONDS        
                                                            END OF HEADER       
G 9 2023  8  4  6  0  0 -.954805873334E-04  .966338120634E-11  .000000000000E+00
      .330000000000E+02 -.128062500000E+03  .438946855327E-08  .770870332106E+00
     -.664032995701E-05  .257446919568E-02  .934116542339E-05  .515357698250E+04
      .453600000000E+06  .558793544769E-07 -.308884163436E+01 -.782310962677E-07
      .956972130348E+00  .195281250000E+03  .194037811661E+01 -.818176937496E-08
     -.220009164265E-09  .100000000000E+01  .227300000000E+04  .000000000000E+00
      .200000000000E+01  .000000000000E+00  .931322574615E-09  .330000000000E+02
      .449046000000E+06  .400000000000E+01
G 4 2023  8  4  6  0  0  .115281436592E-03  .112549969344E-10  .000000000000E+00
      .740000000000E+02 -.123250000000E+03  .424053377811E-08 -.133288076875E+00
     -.627897679806E-05  .247961666901E-02  .103078782558E-04  .515364614487E+04
      .453600000000E+06  .100582838058E-06 -.303163798549E+01  .558793544769E-08
      .963631093526E+00  .181218750000E+03 -.301495385538E+01 -.807676500111E-08
     -.179650340301E-09  .100000000000E+01  .227300000000E+04  .000000000000E+00
      .200000000000E+01  .000000000000E+00 -.465661287308E-08  .842000000000E+03
      .449046000000E+06  .400000000000E+01
G 7 2023  8  4  6  0  0  .105738174170E-03 -.109139364213E-10  .000000000000E+00
      .970000000000E+02  .300625000000E+02  .468340936851E-08 -.258802246136E+01
      .121258199215E-05  .175198500510E-01  .114832073450E-04  .515373709488E+04
      .453600000000E+06  .324100255966E-06 -.201730269115E+01 -.178813934326E-06
      .950188065730E+00  .148750000000E+03 -.217852466649E+01 -.785961309872E-08
      .778603860547E-09  .100000000000E+01  .227300000000E+04  .000000000000E+00
      .200000000000E+01  .000000000000E+00 -.111758708954E-07  .970000000000E+02
      .449046000000E+06  .400000000000E+01
G16 2023  8  4  6  0  0 -.472670421004E-03  .477484718431E-11  .000000000000E+00
      .500000000000E+02 -.543750000000E+01  .528593446610E-08  .121699887739E+01
     -.819563865662E-07  .133147269953E-01  .487640500069E-05  .515362520218E+04
      .453600000000E+06 -.141561031342E-06 -.883731388331E+00  .188127160072E-06
      .964163347011E+00  .291062500000E+03  .791456812290E+00 -.864143137887E-08
     -.235366946835E-09  .100000000000E+01  .227300000000E+04  .000000000000E+00
      .200000000000E+01  .000000000000E+00 -.102445483208E-07  .500000000000E+02
      .449046000000E+06  .400000000000E+01
G30 2023  8  4  6  0  0 -.499205198139E-03  .295585778076E-11  .000000000000E+00
      .930000000000E+02  .278125000000E+02  .512485632798E-08 -.266768830447E+01
      .126101076603E-05  .659825385083E-02  .111386179924E-04  .515378668785E+04
      .453600000000E+06  .428408384323E-07 -.201224290517E+01 -.163912773132E-06
      .935313821289E+00  .155375000000E+03 -.254602405093E+01 -.818319800590E-08
      .661813281465E-09  .100000000000E+01  .227300000000E+04  .000000000000E+00
      .200000000000E+01  .000000000000E+00  .372529029846E-08  .930000000000E+02
      .449046000000E+06  .400000000000E+01
R 2 2023  8  4  4 45  0 -.225612893701E-04  .000000000000E+00  .449040000000E+06
     -.108987075195E+05 -.309293746948E+00  .000000000000E+00  .100000000000E+01
     -.726369873047E+04 -.297720718384E+01  .279396772385E-08 -.400000000000E+01
      .219169584961E+05 -.114858722687E+01 -.186264514923E-08  .000000000000E+00
R12 2023  8  4  4 45  0  .298041850328E-04  .909494701773E-12  .449040000000E+06
     -.160760219727E+05  .164366436005E+01  .000000000000E+00  .000000000000E+00
     -.144104116211E+05  .873710632324E+00  .279396772385E-08 -.100000000000E+01
      .136077290039E+05  .287447357178E+01 -.931322574615E-09  .000000000000E+00
R11 2023  8  4  4 45  0 -.122466124594E-03 -.109139364213E-10  .449040000000E+06
      .242859423828E+04  .286758995056E+01  .000000000000E+00  .000000000000E+00
     -.108562954102E+05  .128141975403E+01  .000000000000E+00  .000000000000E+00
      .229698242188E+05  .300881385803E+00 -.372529029846E-08  .000000000000E+00
R 1 2023  8  4  4 45  0  .627702102065E-04  .000000000000E+00  .449040000000E+06
     -.730872851562E+04 -.300295829773E+00  .279396772385E-08  .000000000000E+00
     -.224893291016E+05 -.128492927551E+01  .000000000000E+00  .100000000000E+01
      .958030273438E+04 -.324349975586E+01 -.186264514923E-08  .000000000000E+00
C19 2023  8  4  4  0  0 -.952647184022E-03 -.781597009336E-11  .000000000000E+00
      .100000000000E+01 -.107421875000E+03  .376301388749E-08  .278956367611E+01
     -.544218346477E-05  .723399920389E-03  .283401459455E-05  .528262596130E+04
      .446400000000E+06  .610016286373E-07  .262723172485E+01 -.293366611004E-07
      .974465693036E+00  .307515625000E+03 -.839368978356E+00 -.710708175277E-08
     -.234652631367E-09  .000000000000E+00  .917000000000E+03  .100000000000E+01
      .200000000000E+01  .000000000000E+00  .960000000000E-08  .960000000000E-08
      .449040000000E+06  .100000000000E+01
C20 2023  8  4  4  0  0  .387500622310E-03 -.278577161339E-10  .000000000000E+00
      .100000000000E+01 -.111906250000E+03  .376551399163E-08  .292648624568E+01
     -.546453520656E-05  .656082527712E-03  .288616865873E-05  .528263063240E+04
      .446400000000E+06  .642612576485E-07  .262785968536E+01  .586733222008E-07
      .974456311342E+00  .307828125000E+03 -.234300355390E+00 -.717172730266E-08
     -.248938940735E-09  .000000000000E+00  .917000000000E+03  .100000000000E+01
      .200000000000E+01  .000000000000E+00  .189000000000E-07  .189000000000E-07
      .449040000000E+06  .100000000000E+01
C36 2023  8  4  4  0  0 -.294405850582E-03  .196367366812E-10  .000000000000E+00
      .100000000000E+01  .628593750000E+02  .456411868529E-08  .136136964713E+01
      .320328399539E-05  .868282862939E-03  .706687569618E-05  .528261350441E+04
      .446400000000E+06 -.330619513988E-07 -.156146633121E+01 -.521540641785E-07
      .946578929795E+00  .212875000000E+03 -.143120188803E+01 -.713172563643E-08
      .562166273625E-09  .000000000000E+00  .917000000000E+03  .100000000000E+01
      .200000000000E+01  .000000000000E+00 -.210000000000E-07 -.210000000000E-07
      .449040000000E+06  .100000000000E+01
C22 2023  8  4  4  0  0 -.366666237824E-03  .166684444025E-10  .000000000000E+00
      .100000000000E+01 -.109390625000E+03  .373408411102E-08  .754108684888E+00
     -.551389530301E-05  .604856177233E-03  .345427542925E-05  .528262977409E+04
      .446400000000E+06  .698491930962E-08  .262897745571E+01 -.349245965481E-07
      .973748936323E+00  .298281250000E+03  .401878939460E+00 -.710029575582E-08
     -.244295890190E-09  .000000000000E+00  .917000000000E+03  .100000000000E+01
      .200000000000E+01  .000000000000E+00  .137000000000E-07  .137000000000E-07
      .449040000000E+06  .100000000000E+01
C37 2023  8  4  4  0  0 -.801977002993E-03 -.564881474929E-11  .000000000000E+00
      .100000000000E+01  .626875000000E+02  .463912180947E-08  .240243174233E+01
      .321259722114E-05  .695661292411E-03  .733183696866E-05  .528263488007E+04
      .446400000000E+06  .141561031342E-06 -.156161400548E+01  .218860805035E-07
      .946591709847E+00  .203703125000E+03 -.898843855814E+00 -.727744599198E-08
      .627168981248E-09  .000000000000E+00  .917000000000E+03  .100000000000E+01
      .200000000000E+01  .000000000000E+00 -.168000000000E-07 -.168000000000E-07
      .449040000000E+06  .100000000000E+01
G27 2023  8  4  6  0  0 -.157486647367E-04 -.693489710102E-11  .000000000000E+00
      .710000000000E+02 -.219687500000E+02  .448697261471E-08  .309477616196E+00
     -.989064574242E-06  .115546333836E-01  .111274421215E-04  .515367036247E+04
      .453600000000E+06  .260770320892E-07  .709393919390E-01  .122934579849E-06
      .966904292268E+00  .165531250000E+03  .742177050425E+00 -.815391107170E-08
     -.786818488434E-09  .100000000000E+01  .227300000000E+04  .000000000000E+00
      .280000000000E+01  .000000000000E+00  .186264514923E-08  .710000000000E+02
      .449076000000E+06  .400000000000E+01
